{
  "type": "FeatureCollection",
  "generator": "overpass-ide",
  "copyright": "The data included in this document is from www.openstreetmap.org. The data is made available under ODbL.",
  "timestamp": "2020-04-13T03:21:02Z",
  "features": [
    {
      "type": "Feature",
      "properties": {
        "@id": "way/203844164",
        "amenity": "bar",
        "building": "yes",
        "name": "Single Barrel",
        "source": "bing"
      },
      "geometry": {
        "type": "Point",
        "coordinates": 
            [
              -96.7068432,
              40.81462
              ]
      },
      "id": "way/203844164"
    },
    {
      "type": "Feature",
      "properties": {
        "@id": "node/1922497332",
        "addr:housenumber": "1332",
        "addr:street": "P Street",
        "amenity": "pub",
        "cuisine": "pizza",
        "disused:amenity": "restaurant",
        "name": "Stogies Bar"
      },
      "geometry": {
        "type": "Point",
        "coordinates": [
          -96.7015996,
          40.8149502
        ]
      },
      "id": "node/1922497332"
    },
    {
      "type": "Feature",
      "properties": {
        "@id": "node/1923741851",
        "addr:city": "Lincoln",
        "addr:state": "NE",
        "amenity": "bar",
        "is_in:city": "Lincoln",
        "is_in:state": "Nebraska",
        "is_in:state_code": "NE",
        "name": "The Happy Raven"
      },
      "geometry": {
        "type": "Point",
        "coordinates": [
          -96.7052988,
          40.8140955
        ]
      },
      "id": "node/1923741851"
    },
    {
      "type": "Feature",
      "properties": {
        "@id": "node/1923741871",
        "addr:city": "Lincoln",
        "addr:country": "US",
        "addr:housenumber": "1140",
        "addr:postcode": "68508",
        "addr:state": "NE",
        "addr:street": "O Street",
        "amenity": "bar",
        "disused:cuisine": "american",
        "internet_access": "wlan",
        "internet_access:fee": "no",
        "is_in:city": "Lincoln",
        "is_in:state": "Nebraska",
        "is_in:state_code": "NE",
        "name": "White Rabbit",
        "opening_hours": "Mo,Sa 00:00-02:00,16:30-24:00; Tu-Fr 16:30-24:00; Su 00:00-02:00,19:00-24:00",
        "phone": "402-474-6279",
        "smoking": "no",
        "smoking:outside": "yes",
        "wheelchair": "yes"
      },
      "geometry": {
        "type": "Point",
        "coordinates": [
          -96.704368,
          40.8137963
        ]
      },
      "id": "node/1923741871"
    },
    {
      "type": "Feature",
      "properties": {
        "@id": "node/1923925358",
        "amenity": "pub",
        "name": "Zoo Bar",
        "wikidata": "Q8074037"
      },
      "geometry": {
        "type": "Point",
        "coordinates": [
          -96.7009492,
          40.814383
        ]
      },
      "id": "node/1923925358"
    },
    {
      "type": "Feature",
      "properties": {
        "@id": "node/1924473791",
        "addr:city": "Lincoln",
        "addr:country": "US",
        "addr:housenumber": "1423",
        "addr:postcode": "68508",
        "addr:state": "NE",
        "addr:street": "O Street",
        "amenity": "bar",
        "cuisine": "pizza",
        "name": "Yia Yia's",
        "opening_hours": "Mo 11:00-24:00; Tu-Sa 00:00-01:00,11:00-24:00; Su 00:00-01:00,12:00-21:00",
        "phone": "402-477-9166",
        "smoking": "no",
        "smoking:outside": "yes",
        "takeaway": "yes",
        "website": "http://yiayiaspizza.com/",
        "wheelchair": "yes"
      },
      "geometry": {
        "type": "Point",
        "coordinates": [
          -96.7004505,
          40.8134367
        ]
      },
      "id": "node/1924473791"
    },
    {
      "type": "Feature",
      "properties": {
        "@id": "node/1946858992",
        "amenity": "bar",
        "name": "Duffy's Tavern",
        "smoking:outside": "yes",
        "website": "http://duffyslincoln.com/"
      },
      "geometry": {
        "type": "Point",
        "coordinates": [
          -96.7007266,
          40.8137742
        ]
      },
      "id": "node/1946858992"
    },
    {
      "type": "Feature",
      "properties": {
        "@id": "node/2189324402",
        "addr:city": "Lincoln",
        "addr:housenumber": "301",
        "addr:postcode": "68508",
        "addr:street": "North 8th Street",
        "alt_name": "LeadBelly Contemporary American Pub",
        "amenity": "pub",
        "cuisine": "american",
        "email": "info@getleaded.com",
        "name": "LeadBelly",
        "phone": "402-261-8849",
        "website": "https://getleaded.com/"
      },
      "geometry": {
        "type": "Point",
        "coordinates": [
          -96.7102505,
          40.8160359
        ]
      },
      "id": "node/2189324402"
    },
    {
      "type": "Feature",
      "properties": {
        "@id": "node/2315669873",
        "amenity": "bar",
        "name": "Sandy's",
        "opening_hours": "Sa-Th 18:00-02:00; Fr 16:00-02:00"
      },
      "geometry": {
        "type": "Point",
        "coordinates": [
          -96.7008746,
          40.8134155
        ]
      },
      "id": "node/2315669873"
    },
    {
      "type": "Feature",
      "properties": {
        "@id": "node/2315669987",
        "amenity": "bar",
        "name": "Fat Toad"
      },
      "geometry": {
        "type": "Point",
        "coordinates": [
          -96.7007699,
          40.813377
        ]
      },
      "id": "node/2315669987"
    },
    {
      "type": "Feature",
      "properties": {
        "@id": "node/2315681501",
        "amenity": "pub",
        "name": "Jake's Cigars"
      },
      "geometry": {
        "type": "Point",
        "coordinates": [
          -96.7013816,
          40.8145564
        ]
      },
      "id": "node/2315681501"
    },
    {
      "type": "Feature",
      "properties": {
        "@id": "node/2869723464",
        "addr:city": "Lincoln",
        "addr:housenumber": "151-#140",
        "addr:postcode": "68508",
        "addr:street": "North 8th Street",
        "amenity": "bar",
        "name": "McKinney's Irish Pub",
        "phone": "402-477-0021",
        "website": "http://mckinneyspublincoln.com/"
      },
      "geometry": {
        "type": "Point",
        "coordinates": [
          -96.7108086,
          40.8146061
        ]
      },
      "id": "node/2869723464"
    },
    {
      "type": "Feature",
      "properties": {
        "@id": "node/3146595663",
        "addr:city": "Lincoln",
        "addr:housename": "Armour Building",
        "addr:housenumber": "100",
        "addr:postcode": "68508",
        "addr:street": "North 8th Street",
        "amenity": "bar",
        "name": "Jack's Bar and Grill"
      },
      "geometry": {
        "type": "Point",
        "coordinates": [
          -96.7097236,
          40.8138762
        ]
      },
      "id": "node/3146595663"
    },
    {
      "type": "Feature",
      "properties": {
        "@id": "node/3148230783",
        "addr:city": "Lincoln",
        "addr:housenumber": "729",
        "addr:postcode": "68508",
        "addr:street": "Q Street",
        "alt_name": "Empyrean Ales",
        "amenity": "pub",
        "name": "Empyrean Brewing Co.",
        "opening_hours": "Mo-Fr 08:00-17:00",
        "phone": "402-434-5960",
        "website": "https://empyreanbrewingco.com/"
      },
      "geometry": {
        "type": "Point",
        "coordinates": [
          -96.7105429,
          40.8155873
        ]
      },
      "id": "node/3148230783"
    },
    {
      "type": "Feature",
      "properties": {
        "@id": "node/3148230819",
        "addr:city": "Lincoln",
        "addr:housename": "Lincoln Hide & Fur Bldg",
        "addr:housenumber": "728-B",
        "addr:postcode": "68508",
        "addr:street": "Q Street",
        "alt_name": "The Cask Fermentations & Cocktails",
        "amenity": "bar",
        "name": "The Cask",
        "opening_hours": "Mo-Sa 16:00-02:00",
        "phone": "402-314-5609",
        "website": "https://www.shoplincoln.com/thecask/"
      },
      "geometry": {
        "type": "Point",
        "coordinates": [
          -96.7105965,
          40.8160927
        ]
      },
      "id": "node/3148230819"
    },
    {
      "type": "Feature",
      "properties": {
        "@id": "node/4035893511",
        "amenity": "bar",
        "description:en": "Pre-prohibition era bar, no cell phone use allowed. Minimum capacity occupancy.",
        "name": "The Other Room",
        "opening_hours": "17:00-02:00",
        "operator": "Jill",
        "smoking": "no"
      },
      "geometry": {
        "type": "Point",
        "coordinates": [
          -96.7090969,
          40.8152789
        ]
      },
      "id": "node/4035893511"
    },
    {
      "type": "Feature",
      "properties": {
        "@id": "node/4472146825",
        "amenity": "pub",
        "name": "HopCat",
        "outdoor_seating": "yes"
      },
      "geometry": {
        "type": "Point",
        "coordinates": [
          -96.7121085,
          40.8144062
        ]
      },
      "id": "node/4472146825"
    },
    {
      "type": "Feature",
      "properties": {
        "@id": "node/6516537069",
        "addr:street": "O St.",
        "amenity": "pub",
        "name": "Iguana's Pub"
      },
      "geometry": {
        "type": "Point",
        "coordinates": [
          -96.700389,
          40.8138042
        ]
      },
      "id": "node/6516537069"
    },
    {
      "type": "Feature",
      "properties": {
        "@id": "node/6993160057",
        "addr:city": "Lincoln",
        "addr:housenumber": "1200",
        "addr:postcode": "68508",
        "addr:state": "NE",
        "addr:street": "O Street",
        "amenity": "pub",
        "atm": "yes",
        "name": "12th Street Pub",
        "opening_hours": "Mo-Sa 11:00-01:00"
      },
      "geometry": {
        "type": "Point",
        "coordinates": [
          -96.7038333,
          40.8138274
        ]
      },
      "id": "node/6993160057"
    },
    {
      "type": "Feature",
      "properties": {
        "@id": "node/6993160059",
        "addr:city": "Lincoln",
        "addr:housenumber": "140",
        "addr:postcode": "68508",
        "addr:state": "NE",
        "addr:street": "North 12th Street",
        "amenity": "bar",
        "name": "Captain Jack's Bar",
        "opening_hours": "Mo-We 15:00-00:00; Th-Sa 15:00-02:00",
        "outdoor_seating": "no"
      },
      "geometry": {
        "type": "Point",
        "coordinates": [
          -96.7038666,
          40.8144622
        ]
      },
      "id": "node/6993160059"
    },
    {
      "type": "Feature",
      "properties": {
        "@id": "node/7217846193",
        "addr:city": "Lincoln",
        "addr:housename": "The Kindler Hotel",
        "addr:housenumber": "216",
        "addr:postcode": "68508",
        "addr:state": "NE",
        "addr:street": "North 11th Street",
        "amenity": "bar",
        "name": "Boitano's Lounge",
        "note": "located within The Kindler Hotel",
        "operator": "Brian Boitano;The Kindler Hotel",
        "phone": "(402) 261-7800",
        "website": "https://thekindlerhotel.com/wp-content/uploads/2020/01/Winter-Cocktail-Menu.pdf"
      },
      "geometry": {
        "type": "Point",
        "coordinates": [
          -96.7052523,
          40.8152488
        ]
      },
      "id": "node/7217846193"
    }
  ]
}
